CCSDS_OMM_VERS = 2.0
CREATION_DATE  = 
ORIGINATOR     = 

OBJECT_NAME    = STARLINK-36561
OBJECT_ID      = 2026-014F
CENTER_NAME    = EARTH
REF_FRAME      = TEME
TIME_SYSTEM    = UTC
MEAN_ELEMENT_THEORY = SGP/SGP4

EPOCH          = 2026-02-03T14:00:01.999872
MEAN_MOTION    = 15.81419251
ECCENTRICITY   = .00016899
INCLINATION    = 97.2800
RA_OF_ASC_NODE = 277.7476
ARG_OF_PERICENTER = 69.1593
MEAN_ANOMALY   = 110.5900

EPHEMERIS_TYPE = 0
CLASSIFICATION_TYPE = U
NORAD_CAT_ID   = 67537
ELEMENT_SET_NO = 999
REV_AT_EPOCH   = 320
BSTAR          = -.42404088E-2
MEAN_MOTION_DOT = -.765909E-2
MEAN_MOTION_DDOT = 0

CCSDS_OMM_VERS = 2.0
CREATION_DATE  = 
ORIGINATOR     = 

OBJECT_NAME    = STARLINK-36397
OBJECT_ID      = 2026-014G
CENTER_NAME    = EARTH
REF_FRAME      = TEME
TIME_SYSTEM    = UTC
MEAN_ELEMENT_THEORY = SGP/SGP4

EPOCH          = 2026-02-03T14:00:01.999872
MEAN_MOTION    = 15.81669125
ECCENTRICITY   = .00016707
INCLINATION    = 97.2796
RA_OF_ASC_NODE = 277.7487
ARG_OF_PERICENTER = 76.9796
MEAN_ANOMALY   = 107.4682

EPHEMERIS_TYPE = 0
CLASSIFICATION_TYPE = U
NORAD_CAT_ID   = 67538
ELEMENT_SET_NO = 999
REV_AT_EPOCH   = 320
BSTAR          = -.58714971E-2
MEAN_MOTION_DOT = -.1039135E-1
MEAN_MOTION_DDOT = 0

CCSDS_OMM_VERS = 2.0
CREATION_DATE  = 
ORIGINATOR     = 

OBJECT_NAME    = STARLINK-36573
OBJECT_ID      = 2026-014H
CENTER_NAME    = EARTH
REF_FRAME      = TEME
TIME_SYSTEM    = UTC
MEAN_ELEMENT_THEORY = SGP/SGP4

EPOCH          = 2026-02-03T14:00:01.999872
MEAN_MOTION    = 15.81933510
ECCENTRICITY   = .00016283
INCLINATION    = 97.2799
RA_OF_ASC_NODE = 277.7516
ARG_OF_PERICENTER = 72.2880
MEAN_ANOMALY   = 118.0695

EPHEMERIS_TYPE = 0
CLASSIFICATION_TYPE = U
NORAD_CAT_ID   = 67539
ELEMENT_SET_NO = 999
REV_AT_EPOCH   = 320
BSTAR          = -.68620403E-2
MEAN_MOTION_DOT = -.1228708E-1
MEAN_MOTION_DDOT = 0

CCSDS_OMM_VERS = 2.0
CREATION_DATE  = 
ORIGINATOR     = 

OBJECT_NAME    = STARLINK-36585
OBJECT_ID      = 2026-014J
CENTER_NAME    = EARTH
REF_FRAME      = TEME
TIME_SYSTEM    = UTC
MEAN_ELEMENT_THEORY = SGP/SGP4

EPOCH          = 2026-02-03T14:00:01.999872
MEAN_MOTION    = 15.82178851
ECCENTRICITY   = .00017253
INCLINATION    = 97.2792
RA_OF_ASC_NODE = 277.7524
ARG_OF_PERICENTER = 84.2227
MEAN_ANOMALY   = 111.2053

EPHEMERIS_TYPE = 0
CLASSIFICATION_TYPE = U
NORAD_CAT_ID   = 67540
ELEMENT_SET_NO = 999
REV_AT_EPOCH   = 320
BSTAR          = -.78921644E-2
MEAN_MOTION_DOT = -.1431314E-1
MEAN_MOTION_DDOT = 0

CCSDS_OMM_VERS = 2.0
CREATION_DATE  = 
ORIGINATOR     = 

OBJECT_NAME    = STARLINK-36579
OBJECT_ID      = 2026-014K
CENTER_NAME    = EARTH
REF_FRAME      = TEME
TIME_SYSTEM    = UTC
MEAN_ELEMENT_THEORY = SGP/SGP4

EPOCH          = 2026-02-03T14:00:01.999872
MEAN_MOTION    = 15.82434421
ECCENTRICITY   = .00017291
INCLINATION    = 97.2797
RA_OF_ASC_NODE = 277.7570
ARG_OF_PERICENTER = 91.8198
MEAN_ANOMALY   = 110.4484

EPHEMERIS_TYPE = 0
CLASSIFICATION_TYPE = U
NORAD_CAT_ID   = 67541
ELEMENT_SET_NO = 999
REV_AT_EPOCH   = 320
BSTAR          = -.76757319E-2
MEAN_MOTION_DOT = -.1384444E-1
MEAN_MOTION_DDOT = 0

CCSDS_OMM_VERS = 2.0
CREATION_DATE  = 
ORIGINATOR     = 

OBJECT_NAME    = STARLINK-35934
OBJECT_ID      = 2026-014L
CENTER_NAME    = EARTH
REF_FRAME      = TEME
TIME_SYSTEM    = UTC
MEAN_ELEMENT_THEORY = SGP/SGP4

EPOCH          = 2026-02-03T14:00:01.999872
MEAN_MOTION    = 15.82676801
ECCENTRICITY   = .000179
INCLINATION    = 97.2797
RA_OF_ASC_NODE = 277.7585
ARG_OF_PERICENTER = 82.2986
MEAN_ANOMALY   = 127.5654

EPHEMERIS_TYPE = 0
CLASSIFICATION_TYPE = U
NORAD_CAT_ID   = 67542
ELEMENT_SET_NO = 999
REV_AT_EPOCH   = 319
BSTAR          = -.77389214E-2
MEAN_MOTION_DOT = -.1436171E-1
MEAN_MOTION_DDOT = 0

CCSDS_OMM_VERS = 2.0
CREATION_DATE  = 
ORIGINATOR     = 

OBJECT_NAME    = STARLINK-36581
OBJECT_ID      = 2026-014M
CENTER_NAME    = EARTH
REF_FRAME      = TEME
TIME_SYSTEM    = UTC
MEAN_ELEMENT_THEORY = SGP/SGP4

EPOCH          = 2026-02-03T14:00:01.999872
MEAN_MOTION    = 15.82885385
ECCENTRICITY   = .00017581
INCLINATION    = 97.2796
RA_OF_ASC_NODE = 277.7613
ARG_OF_PERICENTER = 76.6681
MEAN_ANOMALY   = 139.5168

EPHEMERIS_TYPE = 0
CLASSIFICATION_TYPE = U
NORAD_CAT_ID   = 67543
ELEMENT_SET_NO = 999
REV_AT_EPOCH   = 320
BSTAR          = -.76066314E-2
MEAN_MOTION_DOT = -.139928E-1
MEAN_MOTION_DDOT = 0

CCSDS_OMM_VERS = 2.0
CREATION_DATE  = 
ORIGINATOR     = 

OBJECT_NAME    = STARLINK-36565
OBJECT_ID      = 2026-014N
CENTER_NAME    = EARTH
REF_FRAME      = TEME
TIME_SYSTEM    = UTC
MEAN_ELEMENT_THEORY = SGP/SGP4

EPOCH          = 2026-02-03T14:00:01.999872
MEAN_MOTION    = 15.83073742
ECCENTRICITY   = .00014691
INCLINATION    = 97.2787
RA_OF_ASC_NODE = 277.7628
ARG_OF_PERICENTER = 85.2886
MEAN_ANOMALY   = 136.4598

EPHEMERIS_TYPE = 0
CLASSIFICATION_TYPE = U
NORAD_CAT_ID   = 67544
ELEMENT_SET_NO = 999
REV_AT_EPOCH   = 320
BSTAR          = -.75356464E-2
MEAN_MOTION_DOT = -.1398497E-1
MEAN_MOTION_DDOT = 0

CCSDS_OMM_VERS = 2.0
CREATION_DATE  = 
ORIGINATOR     = 

OBJECT_NAME    = STARLINK-36583
OBJECT_ID      = 2026-014P
CENTER_NAME    = EARTH
REF_FRAME      = TEME
TIME_SYSTEM    = UTC
MEAN_ELEMENT_THEORY = SGP/SGP4

EPOCH          = 2026-02-03T14:00:01.999872
MEAN_MOTION    = 15.83258709
ECCENTRICITY   = .00017643
INCLINATION    = 97.2788
RA_OF_ASC_NODE = 277.7652
ARG_OF_PERICENTER = 84.5844
MEAN_ANOMALY   = 142.7332

EPHEMERIS_TYPE = 0
CLASSIFICATION_TYPE = U
NORAD_CAT_ID   = 67545
ELEMENT_SET_NO = 999
REV_AT_EPOCH   = 320
BSTAR          = -.74459639E-2
MEAN_MOTION_DOT = -.139483E-1
MEAN_MOTION_DDOT = 0

CCSDS_OMM_VERS = 2.0
CREATION_DATE  = 
ORIGINATOR     = 

OBJECT_NAME    = STARLINK-36580
OBJECT_ID      = 2026-014Q
CENTER_NAME    = EARTH
REF_FRAME      = TEME
TIME_SYSTEM    = UTC
MEAN_ELEMENT_THEORY = SGP/SGP4

EPOCH          = 2026-02-03T14:00:01.999872
MEAN_MOTION    = 15.83504675
ECCENTRICITY   = .00018039
INCLINATION    = 97.2783
RA_OF_ASC_NODE = 277.7676
ARG_OF_PERICENTER = 93.5991
MEAN_ANOMALY   = 140.8004

EPHEMERIS_TYPE = 0
CLASSIFICATION_TYPE = U
NORAD_CAT_ID   = 67546
ELEMENT_SET_NO = 999
REV_AT_EPOCH   = 320
BSTAR          = -.73595227E-2
MEAN_MOTION_DOT = -.1394873E-1
MEAN_MOTION_DDOT = 0

CCSDS_OMM_VERS = 2.0
CREATION_DATE  = 
ORIGINATOR     = 

OBJECT_NAME    = STARLINK-36584
OBJECT_ID      = 2026-014R
CENTER_NAME    = EARTH
REF_FRAME      = TEME
TIME_SYSTEM    = UTC
MEAN_ELEMENT_THEORY = SGP/SGP4

EPOCH          = 2026-02-03T14:00:01.999872
MEAN_MOTION    = 15.83664101
ECCENTRICITY   = .00015981
INCLINATION    = 97.2783
RA_OF_ASC_NODE = 277.7696
ARG_OF_PERICENTER = 76.5879
MEAN_ANOMALY   = 162.7877

EPHEMERIS_TYPE = 0
CLASSIFICATION_TYPE = U
NORAD_CAT_ID   = 67547
ELEMENT_SET_NO = 999
REV_AT_EPOCH   = 320
BSTAR          = -.72332101E-2
MEAN_MOTION_DOT = -.1382949E-1
MEAN_MOTION_DDOT = 0

CCSDS_OMM_VERS = 2.0
CREATION_DATE  = 
ORIGINATOR     = 

OBJECT_NAME    = STARLINK-36586
OBJECT_ID      = 2026-014S
CENTER_NAME    = EARTH
REF_FRAME      = TEME
TIME_SYSTEM    = UTC
MEAN_ELEMENT_THEORY = SGP/SGP4

EPOCH          = 2026-02-03T14:00:01.999872
MEAN_MOTION    = 15.83911970
ECCENTRICITY   = .00015905
INCLINATION    = 97.2790
RA_OF_ASC_NODE = 277.7733
ARG_OF_PERICENTER = 81.5189
MEAN_ANOMALY   = 164.8307

EPHEMERIS_TYPE = 0
CLASSIFICATION_TYPE = U
NORAD_CAT_ID   = 67548
ELEMENT_SET_NO = 999
REV_AT_EPOCH   = 320
BSTAR          = -.71989729E-2
MEAN_MOTION_DOT = -.1391507E-1
MEAN_MOTION_DDOT = 0

