STARLINK-36561          
1 67537U 26014F   26034.58335648 -.00765909  00000+0 -42404-2 0  9991
2 67537  97.2800 277.7476 0001689  69.1593 110.5900 15.81419251  3201
STARLINK-36397          
1 67538U 26014G   26034.58335648 -.01039135  00000+0 -58715-2 0  9990
2 67538  97.2796 277.7487 0001670  76.9796 107.4682 15.81669125  3208
STARLINK-36573          
1 67539U 26014H   26034.58335648 -.01228708  00000+0 -68620-2 0  9993
2 67539  97.2799 277.7516 0001628  72.2880 118.0695 15.81933510  3205
STARLINK-36585          
1 67540U 26014J   26034.58335648 -.01431314  00000+0 -78922-2 0  9990
2 67540  97.2792 277.7524 0001725  84.2227 111.2053 15.82178851  3208
STARLINK-36579          
1 67541U 26014K   26034.58335648 -.01384444  00000+0 -76757-2 0  9996
2 67541  97.2797 277.7570 0001729  91.8198 110.4484 15.82434421  3207
STARLINK-35934          
1 67542U 26014L   26034.58335648 -.01436171  00000+0 -77389-2 0  9994
2 67542  97.2797 277.7585 0001790  82.2986 127.5654 15.82676801  3197
STARLINK-36581          
1 67543U 26014M   26034.58335648 -.01399280  00000+0 -76066-2 0  9995
2 67543  97.2796 277.7613 0001758  76.6681 139.5168 15.82885385  3206
STARLINK-36565          
1 67544U 26014N   26034.58335648 -.01398497  00000+0 -75356-2 0  9996
2 67544  97.2787 277.7628 0001469  85.2886 136.4598 15.83073742  3205
STARLINK-36583          
1 67545U 26014P   26034.58335648 -.01394830  00000+0 -74460-2 0  9999
2 67545  97.2788 277.7652 0001764  84.5844 142.7332 15.83258709  3202
STARLINK-36580          
1 67546U 26014Q   26034.58335648 -.01394873  00000+0 -73595-2 0  9995
2 67546  97.2783 277.7676 0001803  93.5991 140.8004 15.83504675  3202
STARLINK-36584          
1 67547U 26014R   26034.58335648 -.01382949  00000+0 -72332-2 0  9995
2 67547  97.2783 277.7696 0001598  76.5879 162.7877 15.83664101  3204
STARLINK-36586          
1 67548U 26014S   26034.58335648 -.01391507  00000+0 -71990-2 0  9995
2 67548  97.2790 277.7733 0001590  81.5189 164.8307 15.83911970  3207
